{"type":"FeatureCollection","name":"Chasse Urbaine — Poitiers","features":[{"type":"Feature","id":"play-area","properties":{"id":"play-area","zone_type":"perimeter","name":"Périmètre de jeu","source_name":"Mesure de cercle"},"geometry":{"type":"Polygon","coordinates":[[[0.319395,46.569756],[0.318104,46.571048],[0.316983,46.572412],[0.316038,46.573838],[0.315278,46.575315],[0.314708,46.576832],[0.314332,46.578378],[0.314154,46.57994],[0.314174,46.581507],[0.314394,46.583067],[0.31481,46.584607],[0.31542,46.586117],[0.316219,46.587585],[0.317201,46.588999],[0.318359,46.590349],[0.319684,46.591624],[0.321165,46.592815],[0.322792,46.593913],[0.324552,46.594909],[0.326432,46.595796],[0.328417,46.596567],[0.330493,46.597216],[0.332643,46.597739],[0.334851,46.59813],[0.337101,46.598388],[0.339374,46.59851],[0.341655,46.598495],[0.343924,46.598344],[0.346166,46.598057],[0.348363,46.597638],[0.350499,46.597088],[0.352556,46.596412],[0.35452,46.595616],[0.356376,46.594705],[0.358109,46.593686],[0.359705,46.592568],[0.361154,46.591358],[0.362444,46.590066],[0.363565,46.588701],[0.364509,46.587275],[0.365268,46.585797],[0.365837,46.58428],[0.366211,46.582734],[0.366387,46.581172],[0.366365,46.579605],[0.366145,46.578045],[0.365727,46.576505],[0.365116,46.574995],[0.364316,46.573528],[0.363333,46.572114],[0.362174,46.570765],[0.360849,46.56949],[0.359367,46.5683],[0.35774,46.567202],[0.35598,46.566207],[0.354101,46.56532],[0.352116,46.564549],[0.350042,46.563901],[0.347893,46.563379],[0.345686,46.562987],[0.343438,46.56273],[0.341166,46.562608],[0.338887,46.562623],[0.336619,46.562774],[0.334378,46.56306],[0.332182,46.56348],[0.330048,46.564029],[0.327991,46.564704],[0.326028,46.5655],[0.324173,46.566411],[0.322441,46.567429],[0.320844,46.568547],[0.319395,46.569756]]]}},{"type":"Feature","id":"extraction-1","properties":{"id":"extraction-1","zone_type":"extraction","name":"France 3","source_name":"France 3"},"geometry":{"type":"Polygon","coordinates":[[[0.319069,46.583569],[0.317664,46.584437],[0.317647,46.584431],[0.317639,46.584405],[0.317615,46.58438],[0.317269,46.584392],[0.317142,46.584363],[0.316935,46.584371],[0.316892,46.584366],[0.316868,46.58434],[0.31687,46.584308],[0.316882,46.584269],[0.316886,46.584211],[0.316906,46.584171],[0.316935,46.584126],[0.31699,46.584073],[0.317017,46.584059],[0.317026,46.58404],[0.317054,46.584007],[0.317064,46.583981],[0.317121,46.583891],[0.317132,46.583859],[0.317134,46.583828],[0.317172,46.583764],[0.317277,46.583557],[0.31734,46.583476],[0.317375,46.583444],[0.317446,46.583363],[0.317456,46.583344],[0.317482,46.583313],[0.317501,46.583271],[0.317536,46.583234],[0.317572,46.583167],[0.317574,46.583143],[0.3176,46.583113],[0.317626,46.58307],[0.317704,46.582991],[0.317721,46.582967],[0.31779,46.5829],[0.317832,46.582852],[0.31785,46.582823],[0.317875,46.582805],[0.317892,46.582775],[0.31791,46.582728],[0.317945,46.582664],[0.317963,46.582601],[0.317981,46.582572],[0.31799,46.58252],[0.318007,46.582491],[0.318025,46.582435],[0.318042,46.582406],[0.318084,46.582365],[0.318101,46.582337],[0.318109,46.582309],[0.318134,46.582286],[0.318168,46.582223],[0.318209,46.582161],[0.318226,46.5821],[0.318228,46.582046],[0.318237,46.582013],[0.318239,46.581921],[0.318265,46.581823],[0.318321,46.581752],[0.318369,46.581713],[0.318416,46.581664],[0.318456,46.581641],[0.318534,46.581581],[0.318581,46.581553],[0.31862,46.58152],[0.318643,46.581483],[0.318667,46.581461],[0.318721,46.581382],[0.318737,46.58135],[0.318738,46.581207],[0.318745,46.581166],[0.318761,46.581125],[0.318837,46.581036],[0.31886,46.580971],[0.318875,46.58096],[0.318905,46.580949],[0.318981,46.580951],[0.318996,46.580976],[0.318996,46.580996],[0.319004,46.581026],[0.319065,46.581069],[0.319126,46.581097],[0.319202,46.581094],[0.319262,46.581077],[0.31933,46.58105],[0.319382,46.580998],[0.319412,46.580977],[0.319427,46.580956],[0.319464,46.580945],[0.319569,46.580896],[0.319644,46.580889],[0.319689,46.580877],[0.319824,46.580873],[0.319893,46.58088],[0.319923,46.580889],[0.319947,46.580908],[0.319948,46.580933],[0.319957,46.580968],[0.319961,46.581063],[0.319955,46.581084],[0.319958,46.581144],[0.319943,46.58116],[0.31993,46.581212],[0.319934,46.581299],[0.31996,46.581375],[0.319965,46.581469],[0.319958,46.5815],[0.319901,46.581602],[0.319902,46.581623],[0.319895,46.581655],[0.319898,46.581714],[0.319914,46.58174],[0.319941,46.581808],[0.319942,46.581835],[0.319913,46.581879],[0.319906,46.581901],[0.319907,46.581928],[0.319924,46.581955],[0.319948,46.58197],[0.320044,46.582],[0.320108,46.582008],[0.320986,46.581984],[0.321121,46.58199],[0.321154,46.582005],[0.321173,46.582037],[0.321216,46.582074],[0.321234,46.582096],[0.321273,46.582161],[0.321291,46.582182],[0.321323,46.582271],[0.321351,46.582309],[0.321363,46.582348],[0.321384,46.582392],[0.321422,46.582453],[0.321433,46.582481],[0.321436,46.58251],[0.321448,46.582549],[0.321468,46.582583],[0.32147,46.5826],[0.321489,46.582622],[0.321495,46.582686],[0.321517,46.582743],[0.321567,46.583215],[0.32156,46.583233],[0.321528,46.583247],[0.321487,46.583254],[0.321415,46.583281],[0.321373,46.583282],[0.321196,46.583355],[0.321163,46.583362],[0.321099,46.583389],[0.321057,46.583396],[0.320986,46.583442],[0.320961,46.583449],[0.320929,46.583468],[0.320906,46.583494],[0.320865,46.583513],[0.320841,46.583533],[0.320787,46.58359],[0.320747,46.583623],[0.320714,46.583636],[0.320608,46.583702],[0.320494,46.583763],[0.320437,46.583815],[0.320396,46.583841],[0.320291,46.58394],[0.320225,46.58398],[0.320209,46.584],[0.320151,46.58404],[0.320024,46.584096],[0.319906,46.584132],[0.319751,46.584138],[0.319572,46.584189],[0.319538,46.58421],[0.319504,46.584217],[0.319479,46.584238],[0.319444,46.584252],[0.31941,46.584279],[0.319342,46.58432],[0.319299,46.584335],[0.319256,46.584362],[0.319205,46.584384],[0.319161,46.584392],[0.318729,46.584407],[0.318677,46.584415],[0.31859,46.584418],[0.318486,46.584435],[0.318356,46.584439],[0.318225,46.584463],[0.318147,46.584466],[0.317958,46.58442],[0.317889,46.584416],[0.317768,46.58442],[0.317708,46.584422],[0.317664,46.584424],[0.319069,46.583569]]]}},{"type":"Feature","id":"extraction-2","properties":{"id":"extraction-2","zone_type":"extraction","name":"Triangle d'or","source_name":"Triangle d'or"},"geometry":{"type":"Polygon","coordinates":[[[0.344521,46.565616],[0.344517,46.5656],[0.344501,46.565565],[0.344494,46.565536],[0.344483,46.565455],[0.344466,46.565382],[0.344459,46.565319],[0.344462,46.56528],[0.344453,46.565257],[0.344438,46.565224],[0.344398,46.56516],[0.344363,46.56513],[0.344328,46.565091],[0.344243,46.564954],[0.344228,46.564938],[0.344203,46.564898],[0.344183,46.564756],[0.344182,46.564697],[0.344187,46.56468],[0.344182,46.564631],[0.344189,46.564601],[0.344186,46.564579],[0.34417,46.564546],[0.344122,46.564391],[0.344112,46.564375],[0.344117,46.564273],[0.344104,46.564174],[0.344107,46.564141],[0.344094,46.564105],[0.343987,46.563941],[0.343966,46.563902],[0.34396,46.56387],[0.343945,46.56384],[0.34393,46.563742],[0.343919,46.563719],[0.343913,46.563687],[0.343918,46.563628],[0.343936,46.563562],[0.343947,46.563549],[0.343969,46.56346],[0.344013,46.563391],[0.344017,46.563376],[0.344048,46.563337],[0.344102,46.563291],[0.344159,46.563256],[0.344325,46.563199],[0.344483,46.563176],[0.344556,46.563182],[0.344646,46.563204],[0.344733,46.563208],[0.344834,46.563199],[0.344886,46.563188],[0.344912,46.56319],[0.345013,46.563173],[0.34519,46.563119],[0.345262,46.563109],[0.345373,46.563103],[0.34544,46.563104],[0.34552,46.563091],[0.345649,46.563086],[0.345679,46.56308],[0.345831,46.563077],[0.346038,46.563122],[0.346108,46.56313],[0.346301,46.56314],[0.346399,46.563154],[0.346637,46.563207],[0.346931,46.563293],[0.347102,46.563322],[0.347161,46.563325],[0.34721,46.563335],[0.347388,46.563356],[0.347525,46.563391],[0.347609,46.563402],[0.347629,46.563399],[0.347807,46.563411],[0.347858,46.56341],[0.348059,46.56343],[0.348144,46.56345],[0.348164,46.563463],[0.348189,46.563471],[0.348252,46.563502],[0.348282,46.563524],[0.348303,46.563533],[0.348417,46.563557],[0.348475,46.563583],[0.34852,46.563597],[0.348597,46.563613],[0.348625,46.563616],[0.348646,46.563613],[0.348663,46.563645],[0.348654,46.563665],[0.348655,46.563677],[0.348644,46.563689],[0.348626,46.563745],[0.34861,46.563775],[0.348586,46.563787],[0.348192,46.563915],[0.348149,46.563938],[0.348074,46.563987],[0.347986,46.564079],[0.34791,46.564147],[0.347885,46.564177],[0.347725,46.564289],[0.347621,46.564388],[0.347573,46.564425],[0.347543,46.564444],[0.347405,46.564489],[0.347375,46.564507],[0.347265,46.564596],[0.347231,46.564638],[0.347208,46.564659],[0.347183,46.564671],[0.347147,46.564705],[0.347051,46.564759],[0.347014,46.564771],[0.346959,46.564802],[0.346804,46.564857],[0.346676,46.564944],[0.346506,46.565017],[0.345407,46.565369],[0.345344,46.565385],[0.344554,46.565642],[0.344503,46.565631],[0.344505,46.565617],[0.344528,46.56561],[0.344521,46.565616]]]}},{"type":"Feature","id":"extraction-3","properties":{"id":"extraction-3","zone_type":"extraction","name":"Parc de la Cassette","source_name":"parc la Cassette"},"geometry":{"type":"Polygon","coordinates":[[[0.316737,46.573584],[0.316734,46.57353],[0.316739,46.573513],[0.31674,46.573477],[0.316753,46.573435],[0.316774,46.573418],[0.316823,46.573393],[0.316927,46.573303],[0.316967,46.573257],[0.317013,46.573104],[0.317029,46.573071],[0.317066,46.573032],[0.317083,46.573023],[0.317102,46.572963],[0.317166,46.572866],[0.317202,46.572828],[0.317327,46.572723],[0.317347,46.572688],[0.317395,46.572642],[0.317434,46.572592],[0.317447,46.572583],[0.317456,46.572552],[0.317552,46.572455],[0.31763,46.572418],[0.317751,46.572422],[0.317947,46.572433],[0.318064,46.572449],[0.318178,46.572458],[0.318886,46.572495],[0.31902,46.572525],[0.319052,46.572536],[0.319122,46.572572],[0.319183,46.57261],[0.319286,46.572655],[0.319379,46.572679],[0.319457,46.572706],[0.319542,46.572724],[0.319565,46.572735],[0.319649,46.572756],[0.319858,46.572826],[0.319973,46.572882],[0.320015,46.572894],[0.320051,46.572916],[0.320108,46.572932],[0.320164,46.572955],[0.320438,46.573007],[0.320552,46.57305],[0.320631,46.573095],[0.320665,46.573103],[0.320683,46.573114],[0.320718,46.573116],[0.320771,46.573133],[0.320894,46.573187],[0.321013,46.573251],[0.321042,46.573259],[0.32107,46.573281],[0.321288,46.573376],[0.321409,46.573445],[0.321466,46.573489],[0.321516,46.57351],[0.321735,46.57356],[0.321764,46.573572],[0.321894,46.573608],[0.321924,46.573609],[0.322024,46.573629],[0.322181,46.573641],[0.322221,46.573651],[0.322342,46.573665],[0.322402,46.573689],[0.322427,46.573705],[0.322594,46.573771],[0.322701,46.573802],[0.322747,46.573804],[0.322792,46.573825],[0.322823,46.57383],[0.322859,46.573846],[0.322879,46.573862],[0.322972,46.573903],[0.322987,46.573918],[0.322988,46.573936],[0.323009,46.57397],[0.323011,46.574039],[0.322992,46.574104],[0.322972,46.574132],[0.322967,46.574151],[0.322973,46.574406],[0.322984,46.574444],[0.322991,46.57473],[0.322981,46.574773],[0.322978,46.574844],[0.322904,46.574932],[0.322857,46.574969],[0.322642,46.57507],[0.322561,46.575086],[0.322544,46.575097],[0.322468,46.57513],[0.322457,46.575141],[0.322348,46.575201],[0.322315,46.575207],[0.322162,46.575199],[0.322037,46.575183],[0.322016,46.575166],[0.321989,46.575152],[0.321961,46.575146],[0.32186,46.575083],[0.321849,46.575082],[0.321812,46.57506],[0.321689,46.575004],[0.321582,46.57497],[0.321545,46.574952],[0.321476,46.574931],[0.321455,46.574918],[0.321418,46.574904],[0.321354,46.574888],[0.321306,46.57487],[0.321258,46.574859],[0.321178,46.57485],[0.321056,46.574819],[0.320886,46.574786],[0.320854,46.574772],[0.320801,46.574765],[0.320754,46.574751],[0.320593,46.574742],[0.320557,46.574728],[0.320467,46.574715],[0.320436,46.574701],[0.320388,46.574694],[0.320253,46.574647],[0.320189,46.574644],[0.320015,46.574622],[0.31999,46.574609],[0.319892,46.574576],[0.319857,46.574558],[0.319769,46.574533],[0.319657,46.574492],[0.319594,46.574484],[0.319403,46.574443],[0.319262,46.574419],[0.318802,46.574393],[0.318771,46.574388],[0.317967,46.574338],[0.317902,46.574342],[0.317373,46.574313],[0.317232,46.574297],[0.317047,46.574287],[0.316948,46.574273],[0.316816,46.574266],[0.316715,46.574245],[0.316535,46.574235],[0.316505,46.574229],[0.316498,46.574217],[0.316503,46.574148],[0.316499,46.574109],[0.316487,46.574097],[0.316507,46.574034],[0.316515,46.573974],[0.316531,46.573941],[0.316561,46.573913],[0.316584,46.573873],[0.3166,46.573855],[0.316612,46.573819],[0.316644,46.573765],[0.316675,46.573734],[0.316716,46.573703],[0.316727,46.573685],[0.316767,46.573557],[0.316737,46.573584]]]}},{"type":"Feature","id":"extraction-4","properties":{"id":"extraction-4","zone_type":"extraction","name":"Parking de la gare","source_name":"Parking de la gare"},"geometry":{"type":"Polygon","coordinates":[[[0.33537,46.584519],[0.335294,46.584424],[0.335277,46.584413],[0.335257,46.584407],[0.335185,46.584357],[0.335169,46.58434],[0.335123,46.584273],[0.335067,46.584206],[0.335028,46.584169],[0.335002,46.584135],[0.334943,46.584095],[0.334889,46.584046],[0.33476,46.583879],[0.334732,46.583856],[0.334708,46.583814],[0.334663,46.583768],[0.334604,46.583695],[0.334495,46.583543],[0.33437,46.583436],[0.334302,46.583363],[0.334265,46.583309],[0.334263,46.583298],[0.334253,46.583283],[0.334254,46.583268],[0.334249,46.583261],[0.33425,46.583252],[0.334192,46.583195],[0.334184,46.583165],[0.334279,46.583115],[0.33449,46.583061],[0.33465,46.583],[0.334751,46.5831],[0.334789,46.583128],[0.334817,46.583162],[0.334818,46.58319],[0.334839,46.583255],[0.334855,46.583294],[0.334883,46.583342],[0.334977,46.583396],[0.335032,46.583439],[0.33509,46.583475],[0.335214,46.58358],[0.335366,46.583689],[0.335379,46.583703],[0.335404,46.58376],[0.335447,46.583814],[0.335496,46.583866],[0.335659,46.584018],[0.33583,46.584149],[0.335876,46.584209],[0.335918,46.584239],[0.33596,46.584279],[0.335982,46.584319],[0.33598,46.584329],[0.335885,46.584355],[0.335625,46.584391],[0.335509,46.584444],[0.33538,46.584516],[0.33537,46.584519]]]}},{"type":"Feature","id":"extraction-5","properties":{"id":"extraction-5","zone_type":"extraction","name":"Parc des Troènes","source_name":"Parc des Troenes"},"geometry":{"type":"Polygon","coordinates":[[[0.349626,46.595128],[0.349654,46.595106],[0.34968,46.595057],[0.349703,46.595033],[0.349758,46.59499],[0.349814,46.594919],[0.349819,46.594898],[0.349845,46.59487],[0.349847,46.594861],[0.349883,46.594815],[0.349958,46.594744],[0.350043,46.594677],[0.350112,46.594568],[0.350127,46.594554],[0.350171,46.594486],[0.350186,46.594418],[0.350225,46.594369],[0.350232,46.594349],[0.350273,46.594312],[0.350307,46.594298],[0.350327,46.594297],[0.350353,46.594306],[0.350393,46.594329],[0.350457,46.594333],[0.350517,46.594347],[0.350527,46.594354],[0.35056,46.594357],[0.35059,46.594366],[0.350634,46.594394],[0.350696,46.594418],[0.350774,46.594434],[0.350872,46.594441],[0.350897,46.594455],[0.350998,46.594464],[0.351057,46.594481],[0.351107,46.594506],[0.351167,46.594518],[0.351307,46.594526],[0.351361,46.594536],[0.351373,46.594545],[0.351378,46.594558],[0.351375,46.594716],[0.351383,46.594738],[0.351421,46.594803],[0.351421,46.594837],[0.351433,46.59487],[0.351438,46.594932],[0.351459,46.595014],[0.351505,46.595075],[0.351527,46.595113],[0.35155,46.595134],[0.351556,46.595144],[0.351559,46.595167],[0.351614,46.595225],[0.351614,46.595236],[0.35157,46.595265],[0.351509,46.595289],[0.351467,46.595311],[0.351307,46.595362],[0.351251,46.595387],[0.351069,46.595482],[0.351037,46.5955],[0.350977,46.595549],[0.350946,46.595562],[0.350929,46.595561],[0.35087,46.595542],[0.350751,46.595492],[0.350561,46.595441],[0.350421,46.595378],[0.350407,46.595363],[0.350223,46.595305],[0.350197,46.595288],[0.350119,46.595253],[0.350051,46.595238],[0.350036,46.595229],[0.349898,46.595198],[0.349757,46.59518],[0.349595,46.595125],[0.349626,46.595128]]]}},{"type":"Feature","id":"prison","properties":{"id":"prison","zone_type":"prison","name":"Prison — Place de la Liberté","source_name":"Prison"},"geometry":{"type":"Polygon","coordinates":[[[0.342715,46.585975],[0.342651,46.585912],[0.342639,46.585859],[0.342637,46.58579],[0.342595,46.585707],[0.342531,46.585666],[0.342523,46.585636],[0.342527,46.585612],[0.342552,46.585584],[0.342589,46.585565],[0.342695,46.585557],[0.342828,46.585504],[0.342975,46.585416],[0.343044,46.585412],[0.343104,46.585425],[0.34311,46.585437],[0.343114,46.585504],[0.343144,46.585553],[0.343201,46.585586],[0.343238,46.585624],[0.343296,46.585668],[0.343351,46.585693],[0.343441,46.585747],[0.343538,46.585783],[0.343533,46.58579],[0.343443,46.585803],[0.343358,46.585803],[0.343189,46.585813],[0.343148,46.585826],[0.343075,46.585883],[0.342991,46.585927],[0.342946,46.585933],[0.342863,46.585954],[0.342734,46.585959],[0.342725,46.585967],[0.342718,46.585983],[0.342715,46.585975]]]}}]}